{"spkid": "50692774", "covariance": {"labels": ["e", "q", "tp", "node", "peri", "i"], "data": [["9.90736110525725E-16", "-2.184855732267172E-15", "-3.920631795385631E-13", "-1.284218437448403E-13", "-1.536741122882028E-13", "-4.349561419091775E-13"], ["-2.184855732267172E-15", "4.818559310156305E-15", "8.628080419189068E-13", "2.818626662909518E-13", "3.397139710166571E-13", "9.535815517935276E-13"], ["-3.920631795385631E-13", "8.628080419189068E-13", "1.679335638092956E-10", "5.050064474877091E-11", "6.663947982570865E-11", "1.932549000841489E-10"], ["-1.284218437448403E-13", "2.818626662909518E-13", "5.050064474877091E-11", "7.535282074425116E-11", "-3.390780063743563E-11", "2.223799545174603E-10"], ["-1.536741122882028E-13", "3.397139710166571E-13", "6.663947982570865E-11", "-3.390780063743563E-11", "7.921491680495574E-11", "-6.121080064331591E-11"], ["-4.349561419091775E-13", "9.535815517935276E-13", "1.932549000841489E-10", "2.223799545174603E-10", "-6.121080064331591E-11", "7.559658333634879E-10"]], "elements": [{"name": "e", "sigma": 3.14759608356238e-08, "units": null, "value": ".7005580802153475", "title": "eccentricity", "label": "e"}, {"sigma": 6.94158433655913e-08, "name": "q", "title": "perihelion distance", "value": ".6766654703319209", "units": "au", "label": "q"}, {"units": "TDB", "title": "time of perihelion passage", "value": "2458238.359835188002", "name": "tp", "sigma": 1.29589183116993e-05, "label": "tp"}, {"name": "om", "sigma": 8.68060025253157e-06, "units": "deg", "title": "longitude of the ascending node", "value": "1.598125363620533", "label": "node"}, {"label": "peri", "units": "deg", "value": "105.1145269898162", "title": "argument of perihelion", "sigma": 8.90027622071112e-06, "name": "w"}, {"units": "deg", "value": "16.20063396431697", "title": "inclination", "sigma": 2.7494832848437e-05, "name": "i", "label": "i"}], "epoch": "2458281.5"}, "elements": [{"units": null, "title": "eccentricity", "value": ".7030511567015448", "sigma": "3.2115E-8", "name": "e", "label": "e"}, {"label": "a", "sigma": "5.8264E-9", "name": "a", "title": "semi-major axis", "value": "2.257843748044559", "units": "au"}, {"units": "au", "title": "perihelion distance", "value": ".6704640893304805", "sigma": "7.1717E-8", "name": "q", "label": "q"}, {"sigma": "2.7462E-5", "name": "i", "units": "deg", "value": "16.28480435180756", "title": "inclination; angle with respect to x-y ecliptic plane", "label": "i"}, {"label": "node", "sigma": "1.0613E-5", "name": "om", "value": ".472309528715923", "title": "longitude of the ascending node", "units": "deg"}, {"label": "peri", "title": "argument of perihelion", "value": "106.3676400990342", "units": "deg", "name": "w", "sigma": "9.4607E-6"}, {"label": "M", "units": "deg", "title": "mean anomaly", "value": "140.4381147472518", "name": "ma", "sigma": "6.8771E-7"}, {"units": "TDB", "value": "2460717.083196373882", "title": "time of perihelion passage", "sigma": "2.0311E-6", "name": "tp", "label": "tp"}, {"name": "per", "sigma": "4.7967E-6", "value": "1239.19385858039", "title": "sidereal orbital period", "units": "d", "label": "period"}, {"name": "n", "sigma": "1.1245E-9", "units": "deg/d", "value": ".2905114462174732", "title": "mean motion", "label": "n"}, {"label": "Q", "sigma": "9.9227E-9", "name": "ad", "units": "au", "value": "3.845223406758639", "title": "aphelion distance"}], "epoch": "2461200.5"}